SENTINEL-6              
1 46984U 20086A   24284.54980964 -.00000041  00000+0  85376-4 0  9990
2 46984  66.0432 331.6644 0007885 269.3733  90.6378 12.80928972181609
